start=new Date('2021-12-21T00:00:00.000Z').valueOf();
sats=[{"REV_AT_EPOCH":"8433","MEAN_ELEMENT_THEORY":"SGP4","EPHEMERIS_TYPE":"0","SITE":"AFETR","INCLINATION":"53.0550","FILE":"3245895","DECAY_DATE":null,"CLASSIFICATION_TYPE":"U","SEMIMAJOR_AXIS":"6925.320","TLE_LINE2":"2 45757  53.0550 290.4933 0002156  65.3425 294.7788 15.06409335 84336","COUNTRY_CODE":"US","TIME_SYSTEM":"UTC","CENTER_NAME":"EARTH","MEAN_ANOMALY":"294.7788","MEAN_MOTION":"15.06409335","OBJECT_TYPE":"PAYLOAD","TLE_LINE1":"1 45757U 20038AD  21354.56928972  .00002108  00000-0  16034-3 0  9992","ARG_OF_PERICENTER":"65.3425","RA_OF_ASC_NODE":"290.4933","PERIOD":"95.592","RCS_SIZE":"LARGE","REF_FRAME":"TEME","MEAN_MOTION_DDOT":"0.0000000000000","MEAN_MOTION_DOT":"0.00002108","EPOCH":"2021-12-20T13:39:46.631808","LAUNCH_DATE":"2020-06-13","OBJECT_NAME":"STARLINK-1486","APOAPSIS":"548.678","PERIAPSIS":"545.692","ECCENTRICITY":"0.00021560","ELEMENT_SET_NO":"999","OBJECT_ID":"2020-038AD","GP_ID":"192111113","BSTAR":"0.00016034000000","NORAD_CAT_ID":"45757"},{"SEMIMAJOR_AXIS":"6925.267","CLASSIFICATION_TYPE":"U","DECAY_DATE":null,"FILE":"3245895","SITE":"AFETR","EPHEMERIS_TYPE":"0","INCLINATION":"53.0548","MEAN_ELEMENT_THEORY":"SGP4","REV_AT_EPOCH":"8438","MEAN_ANOMALY":"301.9311","MEAN_MOTION":"15.06426574","CENTER_NAME":"EARTH","TIME_SYSTEM":"UTC","COUNTRY_CODE":"US","TLE_LINE2":"2 45758  53.0548 289.0342 0002087  58.1881 301.9311 15.06426574 84383","REF_FRAME":"TEME","RCS_SIZE":"LARGE","RA_OF_ASC_NODE":"289.0342","PERIOD":"95.590","OBJECT_TYPE":"PAYLOAD","TLE_LINE1":"1 45758U 20038AE  21354.89364468 -.00000360  00000-0 -52499-5 0  9990","ARG_OF_PERICENTER":"58.1881","GP_ID":"192109861","BSTAR":"-0.00000524990000","NORAD_CAT_ID":"45758","OBJECT_ID":"2020-038AE","ELEMENT_SET_NO":"999","PERIAPSIS":"545.687","ECCENTRICITY":"0.00020870","APOAPSIS":"548.577","EPOCH":"2021-12-20T21:26:50.900352","LAUNCH_DATE":"2020-06-13","OBJECT_NAME":"STARLINK-1487","MEAN_MOTION_DDOT":"0.0000000000000","MEAN_MOTION_DOT":"-0.00000360"},{"COUNTRY_CODE":"US","TLE_LINE2":"2 45759  53.0545 289.1167 0002140  65.3318 294.7894 15.06408952 84387","CENTER_NAME":"EARTH","TIME_SYSTEM":"UTC","MEAN_MOTION":"15.06408952","MEAN_ANOMALY":"294.7894","REV_AT_EPOCH":"8438","EPHEMERIS_TYPE":"0","SITE":"AFETR","INCLINATION":"53.0545","MEAN_ELEMENT_THEORY":"SGP4","DECAY_DATE":null,"FILE":"3245895","SEMIMAJOR_AXIS":"6925.321","CLASSIFICATION_TYPE":"U","EPOCH":"2021-12-20T21:00:19.935072","OBJECT_NAME":"STARLINK-1493","LAUNCH_DATE":"2020-06-13","MEAN_MOTION_DDOT":"0.0000000000000","MEAN_MOTION_DOT":"0.00004057","APOAPSIS":"548.668","OBJECT_ID":"2020-038AF","ELEMENT_SET_NO":"999","PERIAPSIS":"545.704","ECCENTRICITY":"0.00021400","BSTAR":"0.00029104000000","GP_ID":"192110111","NORAD_CAT_ID":"45759","RA_OF_ASC_NODE":"289.1167","PERIOD":"95.592","OBJECT_TYPE":"PAYLOAD","TLE_LINE1":"1 45759U 20038AF  21354.87523073  .00004057  00000-0  29104-3 0  9998","ARG_OF_PERICENTER":"65.3318","RCS_SIZE":"LARGE","REF_FRAME":"TEME"},{"BSTAR":"0.00018126000000","GP_ID":"192111362","NORAD_CAT_ID":"45760","PERIAPSIS":"545.811","ECCENTRICITY":"0.00020030","ELEMENT_SET_NO":"999","OBJECT_ID":"2020-038AG","APOAPSIS":"548.585","MEAN_MOTION_DDOT":"0.0000000000000","MEAN_MOTION_DOT":"0.00002420","EPOCH":"2021-12-20T21:05:38.179968","LAUNCH_DATE":"2020-06-13","OBJECT_NAME":"STARLINK-1494","REF_FRAME":"TEME","RCS_SIZE":"LARGE","OBJECT_TYPE":"PAYLOAD","TLE_LINE1":"1 45760U 20038AG  21354.87891412  .00002420  00000-0  18126-3 0  9999","ARG_OF_PERICENTER":"59.1740","RA_OF_ASC_NODE":"289.1101","PERIOD":"95.592","MEAN_ANOMALY":"300.9446","MEAN_MOTION":"15.06405065","TIME_SYSTEM":"UTC","CENTER_NAME":"EARTH","TLE_LINE2":"2 45760  53.0555 289.1101 0002003  59.1740 300.9446 15.06405065 84392","COUNTRY_CODE":"US","CLASSIFICATION_TYPE":"U","SEMIMAJOR_AXIS":"6925.333","FILE":"3245895","DECAY_DATE":null,"MEAN_ELEMENT_THEORY":"SGP4","SITE":"AFETR","EPHEMERIS_TYPE":"0","INCLINATION":"53.0555","REV_AT_EPOCH":"8439"},{"PERIOD":"92.496","RA_OF_ASC_NODE":"251.7172","ARG_OF_PERICENTER":"55.2590","OBJECT_TYPE":"PAYLOAD","TLE_LINE1":"1 45761U 20038AH  21354.93532550  .00016133  00000-0  22728-3 0  9991","RCS_SIZE":"LARGE","REF_FRAME":"TEME","LAUNCH_DATE":"2020-06-13","OBJECT_NAME":"STARLINK-1495","EPOCH":"2021-12-20T22:26:52.123200","MEAN_MOTION_DOT":"0.00016133","MEAN_MOTION_DDOT":"0.0000000000000","APOAPSIS":"398.180","ELEMENT_SET_NO":"999","OBJECT_ID":"2020-038AH","ECCENTRICITY":"0.00019340","PERIAPSIS":"395.559","GP_ID":"192111613","NORAD_CAT_ID":"45761","BSTAR":"0.00022728000000","REV_AT_EPOCH":"8493","INCLINATION":"53.0543","SITE":"AFETR","EPHEMERIS_TYPE":"0","MEAN_ELEMENT_THEORY":"SGP4","DECAY_DATE":null,"FILE":"3245895","SEMIMAJOR_AXIS":"6775.004","CLASSIFICATION_TYPE":"U","COUNTRY_CODE":"US","TLE_LINE2":"2 45761  53.0543 251.7172 0001934  55.2590 304.8602 15.56819960 84930","CENTER_NAME":"EARTH","TIME_SYSTEM":"UTC","MEAN_ANOMALY":"304.8602","MEAN_MOTION":"15.56819960"},{"MEAN_MOTION":"15.06412712","MEAN_ANOMALY":"297.9610","COUNTRY_CODE":"US","TLE_LINE2":"2 45762  53.0536 289.2378 0002208  62.1603 297.9610 15.06412712 85317","CENTER_NAME":"EARTH","TIME_SYSTEM":"UTC","DECAY_DATE":null,"FILE":"3245562","SEMIMAJOR_AXIS":"6925.310","CLASSIFICATION_TYPE":"U","REV_AT_EPOCH":"8531","INCLINATION":"53.0536","EPHEMERIS_TYPE":"0","SITE":"AFETR","MEAN_ELEMENT_THEORY":"SGP4","OBJECT_ID":"2020-038AJ","ELEMENT_SET_NO":"999","ECCENTRICITY":"0.00022080","PERIAPSIS":"545.645","BSTAR":"0.00018501000000","GP_ID":"192083333","NORAD_CAT_ID":"45762","LAUNCH_DATE":"2020-06-13","OBJECT_NAME":"STARLINK-1499","EPOCH":"2021-12-20T20:23:10.373568","MEAN_MOTION_DOT":"0.00002476","MEAN_MOTION_DDOT":"0.0000000000000","APOAPSIS":"548.704","REF_FRAME":"TEME","PERIOD":"95.591","RA_OF_ASC_NODE":"289.2378","ARG_OF_PERICENTER":"62.1603","OBJECT_TYPE":"PAYLOAD","TLE_LINE1":"1 45762U 20038AJ  21354.84942562  .00002476  00000-0  18501-3 0  9999","RCS_SIZE":"LARGE"},{"ECCENTRICITY":"0.00009970","PERIAPSIS":"338.955","ELEMENT_SET_NO":"999","OBJECT_ID":"2020-038AK","GP_ID":"192110611","NORAD_CAT_ID":"45763","BSTAR":"0.00005448200000","MEAN_MOTION_DOT":"0.00008285","MEAN_MOTION_DDOT":"0.0000000000000","OBJECT_NAME":"STARLINK-1501","LAUNCH_DATE":"2020-06-13","EPOCH":"2021-12-20T21:40:43.741056","APOAPSIS":"340.294","REF_FRAME":"TEME","ARG_OF_PERICENTER":"87.0691","OBJECT_TYPE":"PAYLOAD","TLE_LINE1":"1 45763U 20038AK  21354.90328404  .00008285  00000-0  54482-4 0  9993","PERIOD":"91.326","RA_OF_ASC_NODE":"210.9754","RCS_SIZE":"LARGE","MEAN_ANOMALY":"273.0442","MEAN_MOTION":"15.76761749","TLE_LINE2":"2 45763  53.0515 210.9754 0000997  87.0691 273.0442 15.76761749 85682","COUNTRY_CODE":"US","TIME_SYSTEM":"UTC","CENTER_NAME":"EARTH","FILE":"3245895","DECAY_DATE":null,"CLASSIFICATION_TYPE":"U","SEMIMAJOR_AXIS":"6717.760","REV_AT_EPOCH":"8568","MEAN_ELEMENT_THEORY":"SGP4","INCLINATION":"53.0515","SITE":"AFETR","EPHEMERIS_TYPE":"0"},{"FILE":"3245563","DECAY_DATE":null,"CLASSIFICATION_TYPE":"U","SEMIMAJOR_AXIS":"6925.339","REV_AT_EPOCH":"8531","MEAN_ELEMENT_THEORY":"SGP4","EPHEMERIS_TYPE":"0","SITE":"AFETR","INCLINATION":"53.0541","MEAN_ANOMALY":"293.6024","MEAN_MOTION":"15.06403018","TLE_LINE2":"2 45764  53.0541 289.2548 0002068  66.5182 293.6024 15.06403018 85319","COUNTRY_CODE":"US","TIME_SYSTEM":"UTC","CENTER_NAME":"EARTH","REF_FRAME":"TEME","TLE_LINE1":"1 45764U 20038AL  21354.84205288  .00001479  00000-0  11818-3 0  9994","OBJECT_TYPE":"PAYLOAD","ARG_OF_PERICENTER":"66.5182","RA_OF_ASC_NODE":"289.2548","PERIOD":"95.592","RCS_SIZE":"LARGE","PERIAPSIS":"545.772","ECCENTRICITY":"0.00020680","OBJECT_ID":"2020-038AL","ELEMENT_SET_NO":"999","GP_ID":"192083350","BSTAR":"0.00011818000000","NORAD_CAT_ID":"45764","MEAN_MOTION_DDOT":"0.0000000000000","MEAN_MOTION_DOT":"0.00001479","EPOCH":"2021-12-20T20:12:33.368832","LAUNCH_DATE":"2020-06-13","OBJECT_NAME":"STARLINK-1502","APOAPSIS":"548.636"},{"REF_FRAME":"TEME","RCS_SIZE":"LARGE","OBJECT_TYPE":"PAYLOAD","TLE_LINE1":"1 45766U 20038AN  21354.83099304  .00001047  00000-0  89158-4 0  9999","ARG_OF_PERICENTER":"57.6299","RA_OF_ASC_NODE":"289.3236","PERIOD":"95.592","GP_ID":"192111114","NORAD_CAT_ID":"45766","BSTAR":"0.00008915800000","PERIAPSIS":"545.840","ECCENTRICITY":"0.00019600","OBJECT_ID":"2020-038AN","ELEMENT_SET_NO":"999","APOAPSIS":"548.555","MEAN_MOTION_DDOT":"0.0000000000000","MEAN_MOTION_DOT":"0.00001047","EPOCH":"2021-12-20T19:56:37.798656","LAUNCH_DATE":"2020-06-13","OBJECT_NAME":"STARLINK-1509","CLASSIFICATION_TYPE":"U","SEMIMAJOR_AXIS":"6925.333","FILE":"3245895","DECAY_DATE":null,"MEAN_ELEMENT_THEORY":"SGP4","EPHEMERIS_TYPE":"0","SITE":"AFETR","INCLINATION":"53.0550","REV_AT_EPOCH":"8437","MEAN_ANOMALY":"302.4880","MEAN_MOTION":"15.06405225","TIME_SYSTEM":"UTC","CENTER_NAME":"EARTH","TLE_LINE2":"2 45766  53.0550 289.3236 0001960  57.6299 302.4880 15.06405225 84372","COUNTRY_CODE":"US"},{"CENTER_NAME":"EARTH","TIME_SYSTEM":"UTC","COUNTRY_CODE":"US","TLE_LINE2":"2 45767  53.0553 289.0538 0001959  61.5271 298.5915 15.06408194 84383","MEAN_ANOMALY":"298.5915","MEAN_MOTION":"15.06408194","INCLINATION":"53.0553","SITE":"AFETR","EPHEMERIS_TYPE":"0","MEAN_ELEMENT_THEORY":"SGP4","REV_AT_EPOCH":"8438","SEMIMAJOR_AXIS":"6925.323","CLASSIFICATION_TYPE":"U","DECAY_DATE":null,"FILE":"3245895","APOAPSIS":"548.545","OBJECT_NAME":"STARLINK-1511","LAUNCH_DATE":"2020-06-13","EPOCH":"2021-12-20T21:21:33.007104","MEAN_MOTION_DOT":"0.00001587","MEAN_MOTION_DDOT":"0.0000000000000","GP_ID":"192109862","NORAD_CAT_ID":"45767","BSTAR":"0.00012542000000","OBJECT_ID":"2020-038AP","ELEMENT_SET_NO":"999","ECCENTRICITY":"0.00019590","PERIAPSIS":"545.832","RCS_SIZE":"LARGE","PERIOD":"95.592","RA_OF_ASC_NODE":"289.0538","ARG_OF_PERICENTER":"61.5271","TLE_LINE1":"1 45767U 20038AP  21354.88996536  .00001587  00000-0  12542-3 0  9999","OBJECT_TYPE":"PAYLOAD","REF_FRAME":"TEME"}];
